IRIDIUM 63              
1 25286U 98021B   25070.86722607  .00000611  00000+0  20210-3 0  9990
2 25286  86.3970 122.9725 0002184  97.3880 262.7565 14.36414679410144
IRIDIUM 69              
1 25319U 98026A   25070.89984769  .00000809  00000+0  24671-3 0  9998
2 25319  86.3995 136.5359 0002623  39.9006 320.2386 14.40809611409050
IRIDIUM 71              
1 25320U 98026B   25070.71164672  .00000697  00000+0  21082-3 0  9992
2 25320  86.3982 131.3263 0004067  72.3075 287.8569 14.41018050409552
IRIDIUM 73              
1 25344U 98032C   25070.79842395  .00001091  00000+0  26800-3 0  9990
2 25344  86.4352  88.1900 0002096  75.1600 284.9837 14.51488766416732
IRIDIUM 82              
1 25467U 98051A   25070.73832229  .00028372  00000+0  96698-3 0  9999
2 25467  86.3751 157.4235 0094112 305.3946  53.8534 15.25998971409063
